[{"OBJECT_NAME":"STARLINK-30545","OBJECT_ID":"2023-153K","EPOCH":"2026-03-09T09:04:12.550656","MEAN_MOTION":15.26741829,"ECCENTRICITY":0.00012085,"INCLINATION":42.9998,"RA_OF_ASC_NODE":68.3822,"ARG_OF_PERICENTER":226.2346,"MEAN_ANOMALY":133.8405,"EPHEMERIS_TYPE":0,"CLASSIFICATION_TYPE":"U","NORAD_CAT_ID":58000,"ELEMENT_SET_NO":999,"REV_AT_EPOCH":13485,"BSTAR":-2.9325451e-5,"MEAN_MOTION_DOT":-1.046e-5,"MEAN_MOTION_DDOT":0},{"OBJECT_NAME":"SIMSAT 2","OBJECT_ID":"2000-026B","EPOCH":"2026-03-09T20:25:01.673184","MEAN_MOTION":15.29036787,"ECCENTRICITY":0.00037035,"INCLINATION":86.3514,"RA_OF_ASC_NODE":176.4271,"ARG_OF_PERICENTER":287.9875,"MEAN_ANOMALY":72.0969,"EPHEMERIS_TYPE":0,"CLASSIFICATION_TYPE":"U","NORAD_CAT_ID":26366,"ELEMENT_SET_NO":999,"REV_AT_EPOCH":42803,"BSTAR":0.00013465771,"MEAN_MOTION_DOT":3.833e-5,"MEAN_MOTION_DDOT":0}]
